Kepler #400128
1 99999U 24029BR  24283.46883102  .00001103  00000-0  33518-4 0  9998
2 99999  97.5000 329.8465 0003481 299.7327   0.3331 15.14376476  1771
Kepler #400129
1 99999U 24029BR  24283.46883102  .00001103  00000-0  33518-4 0  9998
2 99999  97.5000 332.4179 0003481 299.7327   0.3331 15.14376476  1771
Kepler #400130
1 99999U 24029BR  24283.46883102  .00001103  00000-0  33518-4 0  9998
2 99999  97.5000 334.9893 0003481 299.7327   0.3331 15.14376476  1771
Kepler #400131
1 99999U 24029BR  24283.46883102  .00001103  00000-0  33518-4 0  9998
2 99999  97.5000 337.5607 0003481 299.7327   0.3331 15.14376476  1771
Kepler #400132
1 99999U 24029BR  24283.46883102  .00001103  00000-0  33518-4 0  9998
2 99999  97.5000 340.1322 0003481 299.7327   0.3331 15.14376476  1771
Kepler #400133
1 99999U 24029BR  24283.46883102  .00001103  00000-0  33518-4 0  9998
2 99999  97.5000 342.7036 0003481 299.7327   0.3331 15.14376476  1771
Kepler #400134
1 99999U 24029BR  24283.46883102  .00001103  00000-0  33518-4 0  9998
2 99999  97.5000 345.2750 0003481 299.7327   0.3331 15.14376476  1771
Kepler #400135
1 99999U 24029BR  24283.46883102  .00001103  00000-0  33518-4 0  9998
2 99999  97.5000 347.8465 0003481 299.7327   0.3331 15.14376476  1771
Kepler #400136
1 99999U 24029BR  24283.46883102  .00001103  00000-0  33518-4 0  9998
2 99999  97.5000 350.4179 0003481 299.7327   0.3331 15.14376476  1771
Kepler #400137
1 99999U 24029BR  24283.46883102  .00001103  00000-0  33518-4 0  9998
2 99999  97.5000 352.9893 0003481 299.7327   0.3331 15.14376476  1771
Kepler #400138
1 99999U 24029BR  24283.46883102  .00001103  00000-0  33518-4 0  9998
2 99999  97.5000 355.5607 0003481 299.7327   0.3331 15.14376476  1771
